[{"OBJECT_NAME":"GAOFEN-1 03","OBJECT_ID":"2018-031B","EPOCH":"2026-03-09T23:48:52.763904","MEAN_MOTION":14.76478861,"ECCENTRICITY":0.00036922,"INCLINATION":98.0633,"RA_OF_ASC_NODE":131.613,"ARG_OF_PERICENTER":51.6467,"MEAN_ANOMALY":308.5074,"EPHEMERIS_TYPE":0,"CLASSIFICATION_TYPE":"U","NORAD_CAT_ID":43260,"ELEMENT_SET_NO":999,"REV_AT_EPOCH":42805,"BSTAR":0.00016454166,"MEAN_MOTION_DOT":1.094e-5,"MEAN_MOTION_DDOT":0},{"OBJECT_NAME":"YZ-1S DEB","OBJECT_ID":"2021-099C","EPOCH":"2026-03-09T21:55:45.414912","MEAN_MOTION":14.74172291,"ECCENTRICITY":0.00058071,"INCLINATION":98.2627,"RA_OF_ASC_NODE":212.3461,"ARG_OF_PERICENTER":311.9054,"MEAN_ANOMALY":48.1658,"EPHEMERIS_TYPE":0,"CLASSIFICATION_TYPE":"U","NORAD_CAT_ID":49385,"ELEMENT_SET_NO":999,"REV_AT_EPOCH":23250,"BSTAR":0.00065707337,"MEAN_MOTION_DOT":4.285e-5,"MEAN_MOTION_DDOT":0}]
